#aV2020  1 20  0  0  0.00000000     288 DD+AD WGS84 FIT  NGA
## 2089  86400.00000000   300.00000000 58868 0.0000000000000
+   32     1  2  3  4  5  6  7  8  9 10 11 12 13 14 15 16 17
+         18 19 20 21 22 23 24 25 26 27 28 29 30 31 32  0  0
+          0  0  0  0  0  0  0  0  0  0  0  0  0  0  0  0  0
+          0  0  0  0  0  0  0  0  0  0  0  0  0  0  0  0  0
+          0  0  0  0  0  0  0  0  0  0  0  0  0  0  0  0  0
++         2  2  2  2  2  2  2  2  2  2  2  2  2  2  2  2  2
++         2  2  2  2  2  2  2  2  2  2  2  2  2  2  2  0  0
++         0  0  0  0  0  0  0  0  0  0  0  0  0  0  0  0  0
++         0  0  0  0  0  0  0  0  0  0  0  0  0  0  0  0  0
++         0  0  0  0  0  0  0  0  0  0  0  0  0  0  0  0  0
%c cc cc ccc ccc cccc cccc cccc cccc ccccc ccccc ccccc ccccc
%c cc cc ccc ccc cccc cccc cccc cccc ccccc ccccc ccccc ccccc
%f  0.0000000  0.000000000  0.00000000000  0.000000000000000
%f  0.0000000  0.000000000  0.00000000000  0.000000000000000
%i    0    0    0    0      0      0      0      0         0
%i    0    0    0    0      0      0      0      0         0
/*      NGA, ST. LOUIS,MO.                                  
/*   EPHEMERIS COMPUTED FROM 2 DAYS OF DATA                 
/*   EPOCHA v5 SMOOTHER                                     
/*   G1762 IERS2010 SATAF SATAPC                            
*  2020  1 20  5 45  0.00000000
P  1  22192.665030  14502.862349   3263.406658   -268.137469                    
V  1   2218.281207   4231.808603 -31578.799891     -0.121486                    
P  2  -8200.619906 -19569.354898  16673.640418   -389.242449                    
V  2  17531.392163   9682.580070  20696.708326     -0.071406                    
P  3  13550.982481   8754.697475  21056.806510    -76.071756                    
V  3  -4188.505456  26520.566325  -8218.561954     -0.079397                    
P  4  21565.265106   3236.991173  15184.062437    -36.904297                    
V  4 -17307.239367   8702.122721  22712.765855     -0.054478                    
P  5  -3325.981698 -24977.610092  -8210.313597     -6.348230                    
V  5   4033.846894  -9952.413830  29312.060599     -0.005505                    
P  6   4372.762527 -14942.294480  21568.457158   -186.920766                    
V  6  21900.956918  16156.051296   6802.390309     -0.100904                    
P  7  20507.451460    968.306590 -16820.719532   -196.005315                    
V  7  16021.621609  14797.715119  19574.644070     -0.083429                    
P  8  13274.274250   9816.820660 -20823.371740    -20.837870                    
V  8 -24001.546307  11097.140065  -9819.848805     -0.013131                    
P  9  25069.865320  -5619.425130   6716.261638   -136.540996                    
V  9  -6739.646917   6108.089279  29994.018700     -0.087540                    
P 10 -11515.138508  20063.157791 -12765.338052   -215.789314                    
V 10   -236.375279 -16577.804739 -25919.193784     -0.135169                    
P 11  22460.113339  11245.818412  -8610.596275   -385.071583                    
V 11 -11070.286179   2024.435482 -28127.128197      0.108382                    
P 12 -10954.987777 -13378.803525  19988.880674    160.418385                    
V 12   5986.350462 -25082.002929 -13191.477075     -0.041248                    
P 13  -4246.077582 -14521.737076 -21954.385977    -18.736194                    
V 13  26584.937275  -7252.106252   -269.498129      0.025935                    
P 14 -10206.657340  16692.990990  18204.010123    -37.690238                    
V 14 -21927.543171   5409.811439 -17754.416404      0.023344                    
P 15 -15221.902823  -9005.048379 -20216.177744   -257.376525                    
V 15  21542.948560 -12792.909497 -10299.416921      0.026281                    
P 16     81.894549  25064.465329  -8259.376156   -115.467801                    
V 16  -4537.983698   9558.792761  30118.102423     -0.040309                    
P 17  19455.647311 -14584.155433  11041.924303    201.704478                    
V 17  13191.174545  -2769.371197 -28044.068799      0.065830                    
P 18  19129.674076  17811.082619  -5480.412661    114.549515                    
V 18  -6731.811484  -1341.331716 -30603.815193      0.023640                    
P 19  13775.491590 -15492.301738  16315.893661   -210.074201                    
V 19  20765.452848  -4629.385831 -21534.091185      0.051570                    
P 20 -14577.871942  10402.378608 -19643.899120    527.815950                    
V 20  -1483.422805 -24913.036218 -12353.703915      0.000290                    
P 21 -18813.139172   2556.162728 -17684.260720    -53.151057                    
V 21 -18934.879939 -15189.943424  17417.826776      0.055316                    
P 22  11946.935283  16705.598172  17117.830261   -782.496510                    
V 22  -3223.092351  21242.063314 -18611.046653     -0.011967                    
P 23  22564.273554   1609.977690  14569.378763   -141.941190                    
V 23 -15418.046543   9138.658515  23059.910095      0.024872                    
P 24 -22436.213679 -14551.154996    805.709000     -7.828191                    
V 24    810.476914  -3391.377745 -30960.091971     -0.005098                    
P 25 -15135.611436   1213.996359  21544.165584    -15.626231                    
V 25   3249.422890 -27712.946352   4068.932698      0.008780                    
P 26  -4111.708616  26036.437010   2070.329920    131.032908                    
V 26  -3092.679972  -3004.918455  31479.847889      0.079355                    
P 27   1304.747977  15309.447661 -21742.028071   -186.441398                    
V 27 -25432.986477   9997.806786   5859.088163     -0.112819                    
P 28  12149.918202 -20767.636032 -10802.278358    744.267990                    
V 28  -1273.718167  14628.004990 -27890.455745     -0.022729                    
P 29 -25331.695640   3519.714768   7172.295442    -11.986172                    
V 29   8034.149553  -4722.632346  30540.785700     -0.095918                    
P 30  12762.840752  -9586.390097 -21218.629654   -133.411249                    
V 30  20589.286585  17581.242677   4238.730624     -0.088617                    
P 31  -2670.815871  16440.500664  20551.085003    -17.709998                    
V 31 -21128.085924 -15692.169715  10246.278422     -0.024974                    
P 32 -18305.173837  15929.202434  10699.669560    189.848787                    
V 32 -13517.422532   2820.035298 -27619.651929      0.104818                    
EOF
